[{"OBJECT_NAME":"OBJECT C","OBJECT_ID":"2024-110C","EPOCH":"2026-03-09T23:43:55.665408","MEAN_MOTION":14.9795015,"ECCENTRICITY":0.00127752,"INCLINATION":97.5516,"RA_OF_ASC_NODE":147.5124,"ARG_OF_PERICENTER":117.9593,"MEAN_ANOMALY":242.2925,"EPHEMERIS_TYPE":0,"CLASSIFICATION_TYPE":"U","NORAD_CAT_ID":60014,"ELEMENT_SET_NO":999,"REV_AT_EPOCH":8695,"BSTAR":0.00013340044,"MEAN_MOTION_DOT":1.519e-5,"MEAN_MOTION_DDOT":0},{"OBJECT_NAME":"COSMOS 2251 DEB","OBJECT_ID":"1993-036GJ","EPOCH":"2026-03-09T09:01:45.653376","MEAN_MOTION":14.85640733,"ECCENTRICITY":0.00467791,"INCLINATION":73.9175,"RA_OF_ASC_NODE":57.6751,"ARG_OF_PERICENTER":289.0388,"MEAN_ANOMALY":70.5727,"EPHEMERIS_TYPE":0,"CLASSIFICATION_TYPE":"U","NORAD_CAT_ID":33999,"ELEMENT_SET_NO":999,"REV_AT_EPOCH":90536,"BSTAR":0.001837424,"MEAN_MOTION_DOT":0.00016238,"MEAN_MOTION_DDOT":0}]
